[ {"name": "STARLINK-35045", "line1": "1 65439U 25194F   26155.38339228  .00004655  00000+0  32617-3 0  9996", "line2": "2 65439  97.4063   9.2435 0002763 107.5433 252.6097 15.05676168 42699"}, {"name": "STARLINK-35050", "line1": "1 65440U 25194G   26156.02859861  .00006258  00000+0  43719-3 0  9996", "line2": "2 65440  97.4058   9.9084 0002339 100.6279 259.5212 15.05663874 42799"}, {"name": "STARLINK-35065", "line1": "1 65441U 25194H   26155.14524401  .00005462  00000+0  38223-3 0  9998", "line2": "2 65441  97.4074   8.9525 0001939  57.2900 302.8514 15.05652695 42651"}, {"name": "STARLINK-34679", "line1": "1 65442U 25194J   26156.03690264  .00005284  00000+0  36986-3 0  9995", "line2": "2 65442  97.4050   9.8952 0002358  78.9361 281.2132 15.05658589 42796"}, {"name": "STARLINK-34678", "line1": "1 65443U 25194K   26155.13970704  .00003074  00000+0  21694-3 0  9991", "line2": "2 65443  97.4063   8.9558 0001981  95.6733 264.4720 15.05660273 42657"}, {"name": "STARLINK-35049", "line1": "1 65444U 25194L   26156.18919674  .00000227  00000+0  19761-4 0  9997", "line2": "2 65444  97.4055   9.9915 0001497  96.0074 264.1324 15.05649338 42816"}, {"name": "STARLINK-35029", "line1": "1 65445U 25194M   26155.18678795  .00007734  00000+0  53922-3 0  9999", "line2": "2 65445  97.4048   9.0450 0002729  94.9237 265.2302 15.05663384 42669"}, {"name": "STARLINK-34991", "line1": "1 65446U 25194N   26155.17848000  .00004832  00000+0  33852-3 0  9993", "line2": "2 65446  97.4057   9.0570 0003107  90.4566 269.7017 15.05661545 42669"}, {"name": "STARLINK-34920", "line1": "1 65447U 25194P   26156.03136346  .00005097  00000+0  35685-3 0  9993", "line2": "2 65447  97.4056   9.9033 0002034  82.0585 278.0873 15.05665095 42799"}, {"name": "STARLINK-35030", "line1": "1 65448U 25194Q   26156.06181921  .00002762  00000+0  19535-3 0  9998", "line2": "2 65448  97.4061   9.8593 0002474 104.8979 255.2523 15.05656018 42798"}, {"name": "STARLINK-35009", "line1": "1 65449U 25194R   26156.02305818  .00004770  00000+0  33429-3 0  9997", "line2": "2 65449  97.4061   9.9163 0002103  90.3525 269.7943 15.05661254 42792"}, {"name": "STARLINK-34970", "line1": "1 65450U 25194S   26155.15355088  .00005219  00000+0  36534-3 0  9995", "line2": "2 65450  97.4046   8.9431 0002136  67.2462 292.8991 15.05660783 42654"}, {"name": "STARLINK-35039", "line1": "1 65451U 25194T   26155.18956283 -.00000132  00000+0 -51558-5 0  9999", "line2": "2 65451  97.4044   9.0433 0003633  75.9778 284.1853 15.05647897 42669"}, {"name": "STARLINK-35084", "line1": "1 65452U 25194U   26156.06735676  .00004308  00000+0  30236-3 0  9994", "line2": "2 65452  97.4064   9.8575 0002234  81.4931 278.6549 15.05659289 42798"}, {"name": "STARLINK-34988", "line1": "1 65453U 25194V   26155.14334404  .00003313  00000+0  23871-3 0  9999", "line2": "2 65453  97.4911   9.9962 0001849  96.3688 263.7749 15.04840983 42706"}, {"name": "STARLINK-35059", "line1": "1 65454U 25194W   26155.14689114  .00003615  00000+0  26005-3 0  9998", "line2": "2 65454  97.4926   9.5192 0002090 123.0937 237.0490 15.04840905 42675"}, {"name": "STARLINK-34728", "line1": "1 65455U 25194X   26155.14802128  .00010207  00000+0  71065-3 0  9992", "line2": "2 65455  97.4062   8.9438 0002962 121.1121 239.0397 15.05635563 42654"}, {"name": "STARLINK-35005", "line1": "1 65456U 25194Y   26156.02584384  .00021079  00000+0  14602-2 0  9994", "line2": "2 65456  97.4054   9.9118 0001943  95.4073 264.7376 15.05659970 42794"}, {"name": "STARLINK-35076", "line1": "1 65457U 25194Z   26155.14247507  .00004196  00000+0  29460-3 0  9990", "line2": "2 65457  97.4062   8.9512 0001675 110.2099 249.9309 15.05657890 42652"}, {"name": "STARLINK-34784", "line1": "1 65458U 25195A   26156.16670139  .00055189  00000+0  17774-2 0  9998", "line2": "2 65458  53.1582 211.3089 0001216  97.7809 298.8504 15.31694488  5918"}, {"name": "STARLINK-34867", "line1": "1 65459U 25195B   26154.46791254  .00027815  00000+0  83195-3 0  9998", "line2": "2 65459  53.1578 219.2635 0000763  85.7362 274.3728 15.34375201 43130"}, {"name": "STARLINK-34850", "line1": "1 65460U 25195C   26154.46369153  .00036239  00000+0  10787-2 0  9995", "line2": "2 65460  53.1552 219.2344 0001188  32.9329 327.1748 15.34394785 43137"}, {"name": "STARLINK-35159", "line1": "1 65461U 25195D   26154.74527343  .00030362  00000+0  90541-3 0  9992", "line2": "2 65461  53.1558 218.1577 0001083  89.1683 270.9444 15.34424179 43174"}, {"name": "STARLINK-35180", "line1": "1 65462U 25195E   26154.46999812  .00018862  00000+0  56799-3 0  9994", "line2": "2 65462  53.1575 219.2770 0001143 141.5585 218.5499 15.34399544 43133"}, {"name": "STARLINK-35111", "line1": "1 65463U 25195F   26156.16670139  .00054438  00000+0  17535-2 0  9995", "line2": "2 65463  53.1568 211.5043 0001207 102.3483 191.2742 15.31695555  5850"}, {"name": "STARLINK-35107", "line1": "1 65464U 25195G   26154.44490764  .00028144  00000+0  91440-3 0  9992", "line2": "2 65464  53.1588 219.1203 0001715  39.9434 320.1694 15.31730567 43135"}, {"name": "STARLINK-35169", "line1": "1 65465U 25195H   26155.80007351  .00022611  00000+0  67844-3 0  9994", "line2": "2 65465  53.1567 213.3620 0001072  17.2013 342.9026 15.34394950 43338"}, {"name": "STARLINK-35027", "line1": "1 65466U 25195J   26154.48262203  .00023109  00000+0  69275-3 0  9990", "line2": "2 65466  53.1584 219.3534 0001141  64.2343 295.8777 15.34410012 43138"}, {"name": "STARLINK-34816", "line1": "1 65467U 25195K   26155.71856565  .00018780  00000+0  64453-3 0  9990", "line2": "2 65467  53.1576 214.2670 0001337  49.7870 310.3247 15.30202609 43317"}, {"name": "STARLINK-35033", "line1": "1 65468U 25195L   26154.44956745  .00029332  00000+0  95311-3 0  9993", "line2": "2 65468  53.1572 219.1437 0000833  78.6350 281.4745 15.31704614 43138"}]