OBJECT_NAME,OBJECT_ID,EPOCH,MEAN_MOTION,ECCENTRICITY,INCLINATION,RA_OF_ASC_NODE,ARG_OF_PERICENTER,MEAN_ANOMALY,EPHEMERIS_TYPE,CLASSIFICATION_TYPE,NORAD_CAT_ID,ELEMENT_SET_NO,REV_AT_EPOCH,BSTAR,MEAN_MOTION_DOT,MEAN_MOTION_DDOT
STARLINK-35045,2025-194F,2026-06-04T09:12:05.092992,15.05676168,.00027638,97.4063,9.2435,107.5433,252.6097,0,U,65439,999,4269,.32617277E-3,.4655E-4,0
STARLINK-35050,2025-194G,2026-06-05T00:41:10.919904,15.05663874,.0002339,97.4058,9.9084,100.6279,259.5212,0,U,65440,999,4279,.43719E-3,.6258E-4,0
STARLINK-35065,2025-194H,2026-06-04T03:29:09.082464,15.05652695,.00019394,97.4074,8.9525,57.2900,302.8514,0,U,65441,999,4265,.38222896E-3,.5462E-4,0
STARLINK-34679,2025-194J,2026-06-05T00:53:08.388096,15.05658589,.0002358,97.4050,9.8952,78.9361,281.2132,0,U,65442,999,4279,.36986E-3,.5284E-4,0
STARLINK-34678,2025-194K,2026-06-04T03:21:10.688256,15.05660273,.00019814,97.4063,8.9558,95.6733,264.4720,0,U,65443,999,4265,.21694068E-3,.3074E-4,0
STARLINK-35049,2025-194L,2026-06-05T04:32:26.598336,15.05649338,.0001497,97.4055,9.9915,96.0074,264.1324,0,U,65444,999,4281,.19761E-4,.227E-5,0
STARLINK-35029,2025-194M,2026-06-04T04:28:58.478880,15.05663384,.00027297,97.4048,9.0450,94.9237,265.2302,0,U,65445,999,4266,.53921796E-3,.7734E-4,0
STARLINK-34991,2025-194N,2026-06-04T04:17:00.672000,15.05661545,.00031072,97.4057,9.0570,90.4566,269.7017,0,U,65446,999,4266,.33852493E-3,.4832E-4,0
STARLINK-34920,2025-194P,2026-06-05T00:45:09.802944,15.05665095,.0002034,97.4056,9.9033,82.0585,278.0873,0,U,65447,999,4279,.35685E-3,.5097E-4,0
STARLINK-35030,2025-194Q,2026-06-05T01:29:01.179744,15.05656018,.0002474,97.4061,9.8593,104.8979,255.2523,0,U,65448,999,4279,.19535E-3,.2762E-4,0
STARLINK-35009,2025-194R,2026-06-05T00:33:12.226752,15.05661254,.0002103,97.4061,9.9163,90.3525,269.7943,0,U,65449,999,4279,.33429E-3,.477E-4,0
STARLINK-34970,2025-194S,2026-06-04T03:41:06.796032,15.05660783,.00021368,97.4046,8.9431,67.2462,292.8991,0,U,65450,999,4265,.36534363E-3,.5219E-4,0
STARLINK-35039,2025-194T,2026-06-04T04:32:58.228512,15.05647897,.00036337,97.4044,9.0433,75.9778,284.1853,0,U,65451,999,4266,-.515578E-5,-.132E-5,0
STARLINK-35084,2025-194U,2026-06-05T01:36:59.624064,15.05659289,.0002234,97.4064,9.8575,81.4931,278.6549,0,U,65452,999,4279,.30236E-3,.4308E-4,0
STARLINK-34988,2025-194V,2026-06-04T03:26:24.925056,15.04840983,.00018491,97.4911,9.9962,96.3688,263.7749,0,U,65453,999,4270,.23871053E-3,.3313E-4,0
STARLINK-35059,2025-194W,2026-06-04T03:31:31.394496,15.04840905,.00020907,97.4926,9.5192,123.0937,237.0490,0,U,65454,999,4267,.26005134E-3,.3615E-4,0
STARLINK-34728,2025-194X,2026-06-04T03:33:09.038592,15.05635563,.0002962,97.4062,8.9438,121.1121,239.0397,0,U,65455,999,4265,.71065321E-3,.10207E-3,0
STARLINK-35005,2025-194Y,2026-06-05T00:37:12.907776,15.05659970,.0001943,97.4054,9.9118,95.4073,264.7376,0,U,65456,999,4279,.14602E-2,.21079E-3,0
STARLINK-35076,2025-194Z,2026-06-04T03:25:09.846048,15.05657890,.00016757,97.4062,8.9512,110.2099,249.9309,0,U,65457,999,4265,.29460104E-3,.4196E-4,0
STARLINK-34784,2025-195A,2026-06-05T04:00:03.000096,15.31694488,.0001216,53.1582,211.3089,97.7809,298.8504,0,U,65458,999,591,.17774E-2,.55189E-3,0
STARLINK-34867,2025-195B,2026-06-03T11:13:47.643456,15.34375201,.00007637,53.1578,219.2635,85.7362,274.3728,0,U,65459,999,4313,.83195409E-3,.27815E-3,0
STARLINK-34850,2025-195C,2026-06-03T11:07:42.948192,15.34394785,.0001188,53.1552,219.2344,32.9329,327.1748,0,U,65460,999,4313,.10786877E-2,.36239E-3,0
STARLINK-35159,2025-195D,2026-06-03T17:53:11.624352,15.34424179,.00010837,53.1558,218.1577,89.1683,270.9444,0,U,65461,999,4317,.90541337E-3,.30362E-3,0
STARLINK-35180,2025-195E,2026-06-03T11:16:47.837568,15.34399544,.00011432,53.1575,219.2770,141.5585,218.5499,0,U,65462,999,4313,.56798792E-3,.18862E-3,0
STARLINK-35111,2025-195F,2026-06-05T04:00:03.000096,15.31695555,.0001207,53.1568,211.5043,102.3483,191.2742,0,U,65463,999,585,.17535E-2,.54438E-3,0
STARLINK-35107,2025-195G,2026-06-03T10:40:40.020096,15.31730567,.00017155,53.1588,219.1203,39.9434,320.1694,0,U,65464,999,4313,.91440082E-3,.28144E-3,0
STARLINK-35169,2025-195H,2026-06-04T19:12:06.351264,15.34394950,.0001072,53.1567,213.3620,17.2013,342.9026,0,U,65465,999,4333,.67844E-3,.22611E-3,0
STARLINK-35027,2025-195J,2026-06-03T11:34:58.543392,15.34410012,.0001141,53.1584,219.3534,64.2343,295.8777,0,U,65466,999,4313,.69275E-3,.23109E-3,0
STARLINK-34816,2025-195K,2026-06-04T17:14:44.072160,15.30202609,.00013372,53.1576,214.2670,49.7870,310.3247,0,U,65467,999,4331,.64453467E-3,.1878E-3,0
STARLINK-35033,2025-195L,2026-06-03T10:47:22.627680,15.31704614,.00008336,53.1572,219.1437,78.6350,281.4745,0,U,65468,999,4313,.95311276E-3,.29332E-3,0
